NAVSTAR 48 (USA 151)    
1 26407U 00040A   26184.48658159  .00000067  00000+0  00000+0 0  9991
2 26407  54.8498 214.5148 0120758 302.6092 229.8904  2.00557835190277
NAVSTAR 51 (USA 166)    
1 27663U 03005A   26185.06323736  .00000070  00000+0  00000+0 0  9999
2 27663  54.8802 214.2982 0148096  53.1273 311.8752  2.00559687171659
NAVSTAR 54 (USA 177)    
1 28190U 04009A   26182.92294126 -.00000019  00000+0  00000+0 0  9996
2 28190  54.8173 275.0916 0116696 173.7601 238.6833  2.00554338163243
NAVSTAR 56 (USA 180)    
1 28474U 04045A   26184.75029685 -.00000071  00000+0  00000+0 0  9998
2 28474  55.1258 324.2295 0170001 316.7952  40.0341  2.00556712158758
NAVSTAR 57 (USA 183)    
1 28874U 05038A   26183.80985120 -.00000014  00000+0  00000+0 0  9992
2 28874  54.8653 272.5467 0128076 296.2867  65.7673  2.00564684152152
INMARSAT 4-F2           
1 28899U 05044A   26184.54712442 -.00000252  00000+0  00000+0 0  9997
2 28899   5.1157  43.6643 0003119  50.9964 167.3520  1.00269985 75680
NAVSTAR 58 (USA 190)    
1 29486U 06042A   26184.96127437  .00000065  00000+0  00000+0 0  9990
2 29486  54.7124 150.6730 0106946  54.8662 317.3308  2.00568928144737
NAVSTAR 59 (USA 192)    
1 29601U 06052A   26183.37612397  .00000066  00000+0  00000+0 0  9999
2 29601  54.9335 213.4040 0084872  90.9430 270.0973  2.00559043143719
NAVSTAR 60 (USA 196)    
1 32260U 07047A   26184.67866669 -.00000021  00000+0  00000+0 0  9998
2 32260  54.1070  79.3860 0167385  87.7388 274.2261  2.00554543137144
COSMOS 2433 [GLONASS-M] 
1 32275U 07052A   26183.87038603 -.00000048  00000+0  00000+0 0  9999
2 32275  65.5669 315.4057 0003073 199.3999 160.5914  2.13104490145397
COSMOS 2432 [GLONASS-M] 
1 32276U 07052B   26185.11473172 -.00000044  00000+0  00000+0 0  9999
2 32276  65.5822 315.4920 0007460 326.1716 212.2631  2.13103452145443
NAVSTAR 61 (USA 199)    
1 32384U 07062A   26182.74759653 -.00000016  00000+0  00000+0 0  9996
2 32384  55.0200 273.5670 0035913 166.6056   6.7740  2.00561025135807
COSMOS 2434 [GLONASS-M] 
1 32393U 07065A   26184.46893560  .00000087  00000+0  00000+0 0  9993
2 32393  64.3197 191.3666 0001287 326.1242  22.8128  2.13101308144115
COSMOS 2436 [GLONASS-M] 
1 32395U 07065C   26181.60164814  .00000080  00000+0  00000+0 0  9994
2 32395  64.3275 191.5357 0017289 353.5646  87.9496  2.13100248144015
NAVSTAR 62 (USA 201)    
1 32711U 08012A   26184.08987643  .00000054  00000+0  00000+0 0  9998
2 32711  54.4991 149.2896 0211525 248.0217 109.6866  2.00572912134076
NAVSTAR 64 (USA 206)    
1 35752U 09043A   26184.59074720 -.00000061  00000+0  00000+0 0  9999
2 35752  56.2206  26.8080 0053808  83.8983 286.3105  2.00553492123698
COSMOS 2456 [GLONASS-M] 
1 36111U 09070A   26183.67073075 -.00000011  00000+0  00000+0 0  9994
2 36111  65.0199  70.4441 0003835 338.5659 276.2480  2.13103720128753
COSMOS 2457 [GLONASS-M] 
1 36112U 09070B   26183.88660545 -.00000011  00000+0  00000+0 0  9992
2 36112  65.0059  70.2800 0003586 124.2837  63.4116  2.13101401128764
COSMOS 2460 [GLONASS-M] 
1 36402U 10007C   26181.05593492 -.00000064  00000+0  00000+0 0  9997
2 36402  65.4124 314.0307 0001950 124.3103  53.7611  2.13101843127002
NAVSTAR 65 (USA 213)    
1 36585U 10022A   26185.16171045  .00000075  00000+0  00000+0 0  9999
2 36585  54.2694 207.8783 0126520  66.1429 115.6659  2.00563270117937
BEIDOU-2 IGSO-1         
1 36828U 10036A   26184.89728687 -.00000080  00000+0  00000+0 0  9990
2 36828  54.3060 162.8088 0058988 225.1324 324.4079  1.00267443 58264
BEIDOU-2 G4             
1 37210U 10057A   26185.11126505 -.00000102  00000+0  00000+0 0  9991
2 37210   3.6864  68.8473 0004925 188.1391 225.1693  1.00271276 57465
BEIDOU-2 IGSO-2         
1 37256U 10068A   26183.67533637 -.00000187  00000+0  00000+0 0  9993
2 37256  47.5191 271.6399 0056589 213.9221 146.5191  1.00278505 56952
BEIDOU-2 IGSO-3         
1 37384U 11013A   26184.53055708 -.00000161  00000+0  00000+0 0  9992
2 37384  62.4298  39.9979 0035243 183.8660 355.7772  1.00264340 55829
GSAT-8                  
1 37605U 11022A   26185.16188378  .00000095  00000+0  00000+0 0  9993
2 37605   2.1722  81.6274 0002090 166.7391 147.1810  1.00271283 53384
BEIDOU-2 IGSO-4         
1 37763U 11038A   26184.93913991  .00000029  00000+0  00000+0 0  9993
2 37763  54.6040 165.5238 0159836 231.3868 317.1483  1.00282089 54815
GSAT0101 (GALILEO-PFM)  
1 37846U 11060A   26184.27277324 -.00000076  00000+0  00000+0 0  9993
2 37846  56.9888 341.3256 0002656  57.8189 302.2010  1.70475789 91393
GSAT0102 (GALILEO-FM2)  
1 37847U 11060B   26184.78699916 -.00000075  00000+0  00000+0 0  9994
2 37847  56.9894 341.3121 0002522  12.9231 348.3249  1.70476028 91419
COSMOS 2476 [GLONASS-M] 
1 37867U 11064A   26184.63293293 -.00000008  00000+0  00000+0 0  9998
2 37867  65.2791  72.3163 0022385 237.0520 304.2644  2.13104036114115
COSMOS 2477 [GLONASS-M] 
1 37868U 11064B   26184.40113999 -.00000008  00000+0  00000+0 0  9998
2 37868  65.2853  72.4036 0019485 238.2011 305.5847  2.13103279114106
COSMOS 2475 [GLONASS-M] 
1 37869U 11064C   26182.57892419 -.00000013  00000+0  00000+0 0  9992
2 37869  65.2912  72.4865 0025163 252.1303 288.7676  2.13101976114072
